{
  "links" : {
    "next" : "https://api.nasa.gov/neo/rest/v1/feed?start_date=2013-05-23&end_date=2013-05-23&detailed=true&api_key=t0TVs3DtDT2H8Oy2Zy8m2eVrNsAVKAexjcZXUckd",
    "prev" : "https://api.nasa.gov/neo/rest/v1/feed?start_date=2013-05-21&end_date=2013-05-21&detailed=true&api_key=t0TVs3DtDT2H8Oy2Zy8m2eVrNsAVKAexjcZXUckd",
    "self" : "https://api.nasa.gov/neo/rest/v1/feed?start_date=2013-05-22&end_date=2013-05-22&detailed=true&api_key=t0TVs3DtDT2H8Oy2Zy8m2eVrNsAVKAexjcZXUckd"
  },
  "element_count" : 11,
  "near_earth_objects" : {
    "2013-05-22" : [ {
      "links" : {
        "self" : "https://api.nasa.gov/neo/rest/v1/neo/3638508?api_key=t0TVs3DtDT2H8Oy2Zy8m2eVrNsAVKAexjcZXUckd"
      },
      "neo_reference_id" : "3638508",
      "name" : "(2013 KB)",
      "nasa_jpl_url" : "http://ssd.jpl.nasa.gov/sbdb.cgi?sstr=3638508",
      "absolute_magnitude_h" : 27.2,
      "estimated_diameter" : {
        "kilometers" : {
          "estimated_diameter_min" : 0.0096506147,
          "estimated_diameter_max" : 0.0215794305
        },
        "meters" : {
          "estimated_diameter_min" : 9.6506146958,
          "estimated_diameter_max" : 21.5794304844
        },
        "miles" : {
          "estimated_diameter_min" : 0.0059966121,
          "estimated_diameter_max" : 0.0134088323
        },
        "feet" : {
          "estimated_diameter_min" : 31.6621227185,
          "estimated_diameter_max" : 70.7986587106
        }
      },
      "is_potentially_hazardous_asteroid" : false,
      "close_approach_data" : [ {
        "close_approach_date" : "2013-05-22",
        "epoch_date_close_approach" : 1369206000000,
        "relative_velocity" : {
          "kilometers_per_second" : "6.7626254101",
          "kilometers_per_hour" : "24345.4514765097",
          "miles_per_hour" : "15127.3167799457"
        },
        "miss_distance" : {
          "astronomical" : "0.008124137",
          "lunar" : "3.160289526",
          "kilometers" : "1215353.625",
          "miles" : "755185.75"
        },
        "orbiting_body" : "Earth"
      } ],
      "orbital_data" : {
        "orbit_id" : "5",
        "orbit_determination_date" : "2017-04-06 08:45:47",
        "orbit_uncertainty" : "8",
        "minimum_orbit_intersection" : ".00815142",
        "jupiter_tisserand_invariant" : "3.785",
        "epoch_osculation" : "2456429.5",
        "eccentricity" : ".4697152090697234",
        "semi_major_axis" : "1.916999170372429",
        "inclination" : "3.00375961405185",
        "ascending_node_longitude" : "55.11793345514045",
        "orbital_period" : "969.4631687084031",
        "perihelion_distance" : "1.016555504274457",
        "perihelion_argument" : "191.8180901424404",
        "aphelion_distance" : "2.8174428364704",
        "perihelion_time" : "2456439.740538792730",
        "mean_anomaly" : "356.1972831105132",
        "mean_motion" : ".3713395326607621",
        "equinox" : "J2000"
      }
    }, {
      "links" : {
        "self" : "https://api.nasa.gov/neo/rest/v1/neo/3638576?api_key=t0TVs3DtDT2H8Oy2Zy8m2eVrNsAVKAexjcZXUckd"
      },
      "neo_reference_id" : "3638576",
      "name" : "(2013 KS1)",
      "nasa_jpl_url" : "http://ssd.jpl.nasa.gov/sbdb.cgi?sstr=3638576",
      "absolute_magnitude_h" : 26.8,
      "estimated_diameter" : {
        "kilometers" : {
          "estimated_diameter_min" : 0.0116025908,
          "estimated_diameter_max" : 0.0259441818
        },
        "meters" : {
          "estimated_diameter_min" : 11.6025908209,
          "estimated_diameter_max" : 25.9441817907
        },
        "miles" : {
          "estimated_diameter_min" : 0.0072095135,
          "estimated_diameter_max" : 0.0161209622
        },
        "feet" : {
          "estimated_diameter_min" : 38.066244069,
          "estimated_diameter_max" : 85.1187093863
        }
      },
      "is_potentially_hazardous_asteroid" : false,
      "close_approach_data" : [ {
        "close_approach_date" : "2013-05-22",
        "epoch_date_close_approach" : 1369206000000,
        "relative_velocity" : {
          "kilometers_per_second" : "9.5016818088",
          "kilometers_per_hour" : "34206.0545117597",
          "miles_per_hour" : "21254.3120381542"
        },
        "miss_distance" : {
          "astronomical" : "0.0123321325",
          "lunar" : "4.7971992493",
          "kilometers" : "1844860.75",
          "miles" : "1146343.25"
        },
        "orbiting_body" : "Earth"
      } ],
      "orbital_data" : {
        "orbit_id" : "6",
        "orbit_determination_date" : "2017-04-06 08:45:45",
        "orbit_uncertainty" : "8",
        "minimum_orbit_intersection" : ".00626119",
        "jupiter_tisserand_invariant" : "4.485",
        "epoch_osculation" : "2456430.5",
        "eccentricity" : ".3898552302007934",
        "semi_major_axis" : "1.48612351718227",
        "inclination" : "1.798899133019964",
        "ascending_node_longitude" : "231.3969906251545",
        "orbital_period" : "661.7299433666593",
        "perihelion_distance" : ".9067504912843632",
        "perihelion_argument" : "62.64609492243732",
        "aphelion_distance" : "2.065496543080176",
        "perihelion_time" : "2456476.907151868877",
        "mean_anomaly" : "334.753183167444",
        "mean_motion" : ".5440285778340952",
        "equinox" : "J2000"
      }
    }, {
      "links" : {
        "self" : "https://api.nasa.gov/neo/rest/v1/neo/2363071?api_key=t0TVs3DtDT2H8Oy2Zy8m2eVrNsAVKAexjcZXUckd"
      },
      "neo_reference_id" : "2363071",
      "name" : "363071 (2000 GD147)",
      "nasa_jpl_url" : "http://ssd.jpl.nasa.gov/sbdb.cgi?sstr=2363071",
      "absolute_magnitude_h" : 20.3,
      "estimated_diameter" : {
        "kilometers" : {
          "estimated_diameter_min" : 0.2315021222,
          "estimated_diameter_max" : 0.5176544822
        },
        "meters" : {
          "estimated_diameter_min" : 231.5021222103,
          "estimated_diameter_max" : 517.6544821978
        },
        "miles" : {
          "estimated_diameter_min" : 0.1438487052,
          "estimated_diameter_max" : 0.3216554833
        },
        "feet" : {
          "estimated_diameter_min" : 759.5214226325,
          "estimated_diameter_max" : 1698.3415313737
        }
      },
      "is_potentially_hazardous_asteroid" : false,
      "close_approach_data" : [ {
        "close_approach_date" : "2013-05-22",
        "epoch_date_close_approach" : 1369206000000,
        "relative_velocity" : {
          "kilometers_per_second" : "15.111200813",
          "kilometers_per_hour" : "54400.3229268644",
          "miles_per_hour" : "33802.2450986397"
        },
        "miss_distance" : {
          "astronomical" : "0.1445395861",
          "lunar" : "56.225894928",
          "kilometers" : "21622814",
          "miles" : "13435793"
        },
        "orbiting_body" : "Earth"
      } ],
      "orbital_data" : {
        "orbit_id" : "20",
        "orbit_determination_date" : "2017-04-06 09:22:46",
        "orbit_uncertainty" : "0",
        "minimum_orbit_intersection" : ".0871451",
        "jupiter_tisserand_invariant" : "3.748",
        "epoch_osculation" : "2458000.5",
        "eccentricity" : ".5492402987483523",
        "semi_major_axis" : "1.893909848399106",
        "inclination" : "7.092311275476016",
        "ascending_node_longitude" : "357.4385975930662",
        "orbital_period" : "952.0009471573085",
        "perihelion_distance" : ".8536982374619345",
        "perihelion_argument" : "182.2465679120737",
        "aphelion_distance" : "2.934121459336279",
        "perihelion_time" : "2458297.988413715233",
        "mean_anomaly" : "247.5044932914467",
        "mean_motion" : ".3781508842769183",
        "equinox" : "J2000"
      }
    } ]
  }
}